{
  "type": "FeatureCollection",
  "features": [
    {
      "type": "Feature",
      "properties": {
        "norad_id": 66479,
        "name": "STARLINK-35581",
        "group": "last-30-days",
        "lat": -37.73951897427503,
        "lon": 69.2529957952901,
        "alt_km": 389.96225439522823,
        "timestamp": "2025-12-03T10:52:56.221912+00:00",
        "meta_object_name": "STARLINK-35581",
        "meta_object_id": "2025-262Z",
        "meta_epoch": "2025-12-03T04:00:01.998720",
        "meta_mean_motion": 15.61253854,
        "meta_eccentricity": 0.0001439,
        "meta_inclination": 42.9995,
        "meta_ra_of_asc_node": 127.118,
        "meta_arg_of_pericenter": 283.8398,
        "meta_mean_anomaly": 199.4603,
        "meta_ephemeris_type": 0,
        "meta_classification_type": "U",
        "meta_norad_cat_id": 66479,
        "meta_element_set_no": 999,
        "meta_rev_at_epoch": 410,
        "meta_bstar": -0.027919,
        "meta_mean_motion_dot": -0.02161965,
        "meta_mean_motion_ddot": 0,
        "tle_line1": "1 66479U 25262Z   25337.16668980 -.02161965  00000+0 -27919-1 0  9993",
        "tle_line2": "2 66479  42.9995 127.1180 0001439 283.8398 199.4603 15.61253854  4107"
      },
      "geometry": {
        "type": "Point",
        "coordinates": [
          69.2529957952901,
          -37.73951897427503
        ]
      }
    },
    {
      "type": "Feature",
      "properties": {
        "norad_id": 66480,
        "name": "STARLINK-35670",
        "group": "last-30-days",
        "lat": -35.37457753077563,
        "lon": 75.76491469473241,
        "alt_km": 389.96612410611397,
        "timestamp": "2025-12-03T10:52:56.221923+00:00",
        "meta_object_name": "STARLINK-35670",
        "meta_object_id": "2025-262AA",
        "meta_epoch": "2025-12-03T04:00:01.998720",
        "meta_mean_motion": 15.61261756,
        "meta_eccentricity": 0.0001356,
        "meta_inclination": 42.9993,
        "meta_ra_of_asc_node": 127.1038,
        "meta_arg_of_pericenter": 279.2954,
        "meta_mean_anomaly": 209.7547,
        "meta_ephemeris_type": 0,
        "meta_classification_type": "U",
        "meta_norad_cat_id": 66480,
        "meta_element_set_no": 999,
        "meta_rev_at_epoch": 410,
        "meta_bstar": -0.028091,
        "meta_mean_motion_dot": -0.02174292,
        "meta_mean_motion_ddot": 0,
        "tle_line1": "1 66480U 25262AA  25337.16668980 -.02174292  00000+0 -28091-1 0  9994",
        "tle_line2": "2 66480  42.9993 127.1038 0001356 279.2954 209.7547 15.61261756  4106"
      },
      "geometry": {
        "type": "Point",
        "coordinates": [
          75.76491469473241,
          -35.37457753077563
        ]
      }
    },
    {
      "type": "Feature",
      "properties": {
        "norad_id": 66481,
        "name": "STARLINK-35698",
        "group": "last-30-days",
        "lat": -34.51252475011589,
        "lon": 77.84091691798754,
        "alt_km": 389.8631887327856,
        "timestamp": "2025-12-03T10:52:56.221933+00:00",
        "meta_object_name": "STARLINK-35698",
        "meta_object_id": "2025-262AB",
        "meta_epoch": "2025-12-03T04:00:01.998720",
        "meta_mean_motion": 15.61257964,
        "meta_eccentricity": 0.0001403,
        "meta_inclination": 42.9991,
        "meta_ra_of_asc_node": 127.0983,
        "meta_arg_of_pericenter": 283.7372,
        "meta_mean_anomaly": 207.2295,
        "meta_ephemeris_type": 0,
        "meta_classification_type": "U",
        "meta_norad_cat_id": 66481,
        "meta_element_set_no": 999,
        "meta_rev_at_epoch": 410,
        "meta_bstar": -0.028005,
        "meta_mean_motion_dot": -0.02168109,
        "meta_mean_motion_ddot": 0,
        "tle_line1": "1 66481U 25262AB  25337.16668980 -.02168109  00000+0 -28005-1 0  9990",
        "tle_line2": "2 66481  42.9991 127.0983 0001403 283.7372 207.2295 15.61257964  4109"
      },
      "geometry": {
        "type": "Point",
        "coordinates": [
          77.84091691798754,
          -34.51252475011589
        ]
      }
    },
    {
      "type": "Feature",
      "properties": {
        "norad_id": 66482,
        "name": "STARLINK-35648",
        "group": "last-30-days",
        "lat": -33.613085028301,
        "lon": 79.88080013620996,
        "alt_km": 389.9575128084325,
        "timestamp": "2025-12-03T10:52:56.221943+00:00",
        "meta_object_name": "STARLINK-35648",
        "meta_object_id": "2025-262AC",
        "meta_epoch": "2025-12-03T04:00:01.998720",
        "meta_mean_motion": 15.61257807,
        "meta_eccentricity": 0.0001269,
        "meta_inclination": 42.9991,
        "meta_ra_of_asc_node": 127.0935,
        "meta_arg_of_pericenter": 279.2381,
        "meta_mean_anomaly": 213.6472,
        "meta_ephemeris_type": 0,
        "meta_classification_type": "U",
        "meta_norad_cat_id": 66482,
        "meta_element_set_no": 999,
        "meta_rev_at_epoch": 394,
        "meta_bstar": -0.027998,
        "meta_mean_motion_dot": -0.02167505,
        "meta_mean_motion_ddot": 0,
        "tle_line1": "1 66482U 25262AC  25337.16668980 -.02167505  00000+0 -27998-1 0  9990",
        "tle_line2": "2 66482  42.9991 127.0935 0001269 279.2381 213.6472 15.61257807  3942"
      },
      "geometry": {
        "type": "Point",
        "coordinates": [
          79.88080013620996,
          -33.613085028301
        ]
      }
    },
    {
      "type": "Feature",
      "properties": {
        "norad_id": 66483,
        "name": "STARLINK-35654",
        "group": "last-30-days",
        "lat": -32.68233362565285,
        "lon": 81.87409015301259,
        "alt_km": 389.8339245904017,
        "timestamp": "2025-12-03T10:52:56.221953+00:00",
        "meta_object_name": "STARLINK-35654",
        "meta_object_id": "2025-262AD",
        "meta_epoch": "2025-12-03T04:00:01.998720",
        "meta_mean_motion": 15.61255599,
        "meta_eccentricity": 0.000143,
        "meta_inclination": 42.9993,
        "meta_ra_of_asc_node": 127.0881,
        "meta_arg_of_pericenter": 277.6417,
        "meta_mean_anomaly": 217.1603,
        "meta_ephemeris_type": 0,
        "meta_classification_type": "U",
        "meta_norad_cat_id": 66483,
        "meta_element_set_no": 999,
        "meta_rev_at_epoch": 410,
        "meta_bstar": -0.02796,
        "meta_mean_motion_dot": -0.02164891,
        "meta_mean_motion_ddot": 0,
        "tle_line1": "1 66483U 25262AD  25337.16668980 -.02164891  00000+0 -27960-1 0  9995",
        "tle_line2": "2 66483  42.9993 127.0881 0001430 277.6417 217.1603 15.61255599  4107"
      },
      "geometry": {
        "type": "Point",
        "coordinates": [
          81.87409015301259,
          -32.68233362565285
        ]
      }
    },
    {
      "type": "Feature",
      "properties": {
        "norad_id": 66484,
        "name": "STARLINK-35371",
        "group": "last-30-days",
        "lat": -31.721340311297794,
        "lon": 83.82558758160252,
        "alt_km": 389.8536199651662,
        "timestamp": "2025-12-03T10:52:56.221964+00:00",
        "meta_object_name": "STARLINK-35371",
        "meta_object_id": "2025-262AE",
        "meta_epoch": "2025-12-03T04:00:01.998720",
        "meta_mean_motion": 15.6126138,
        "meta_eccentricity": 0.0001331,
        "meta_inclination": 42.9995,
        "meta_ra_of_asc_node": 127.0844,
        "meta_arg_of_pericenter": 277.2188,
        "meta_mean_anomaly": 219.4937,
        "meta_ephemeris_type": 0,
        "meta_classification_type": "U",
        "meta_norad_cat_id": 66484,
        "meta_element_set_no": 999,
        "meta_rev_at_epoch": 410,
        "meta_bstar": -0.027998,
        "meta_mean_motion_dot": -0.02167868,
        "meta_mean_motion_ddot": 0,
        "tle_line1": "1 66484U 25262AE  25337.16668980 -.02167868  00000+0 -27998-1 0  9994",
        "tle_line2": "2 66484  42.9995 127.0844 0001331 277.2188 219.4937 15.61261380  4100"
      },
      "geometry": {
        "type": "Point",
        "coordinates": [
          83.82558758160252,
          -31.721340311297794
        ]
      }
    },
    {
      "type": "Feature",
      "properties": {
        "norad_id": 66485,
        "name": "STARLINK-34774",
        "group": "last-30-days",
        "lat": 26.00171275216345,
        "lon": -148.5066943391618,
        "alt_km": 350.97285336729874,
        "timestamp": "2025-12-03T10:52:56.221974+00:00",
        "meta_object_name": "STARLINK-34774",
        "meta_object_id": "2025-263A",
        "meta_epoch": "2025-12-03T04:00:01.998720",
        "meta_mean_motion": 15.72807287,
        "meta_eccentricity": 0.0001499,
        "meta_inclination": 42.9991,
        "meta_ra_of_asc_node": 181.6609,
        "meta_arg_of_pericenter": 272.9807,
        "meta_mean_anomaly": 302.2083,
        "meta_ephemeris_type": 0,
        "meta_classification_type": "U",
        "meta_norad_cat_id": 66485,
        "meta_element_set_no": 999,
        "meta_rev_at_epoch": 409,
        "meta_bstar": -0.016079,
        "meta_mean_motion_dot": -0.01982253,
        "meta_mean_motion_ddot": 0,
        "tle_line1": "1 66485U 25263A   25337.16668980 -.01982253  00000+0 -16079-1 0  9996",
        "tle_line2": "2 66485  42.9991 181.6609 0001499 272.9807 302.2083 15.72807287  4092"
      },
      "geometry": {
        "type": "Point",
        "coordinates": [
          -148.5066943391618,
          26.00171275216345
        ]
      }
    }
  ]
}